ModelForces
version=1
nRows=21
nColumns=10
inDegrees=no

This file contains the forces exerted on a model during a simulation.

A force is a generalized force, meaning that it can be either a force (N) or a torque (Nm).

Units are S.I. units (second, meters, Newtons, ...)
If the header above contains a line with 'inDegrees', this indicates whether rotational values are in degrees (yes) or radians (no).

endheader
time	flexor	extensor	reserve	ground_known_downward_force_fx	ground_known_downward_force_fy	ground_known_downward_force_fz	ground_known_downward_force_px	ground_known_downward_force_py	ground_known_downward_force_pz
      0.0000000000000000	     30.0953731132424167	      0.8000000000000000	      0.0000042561284902	      0.0000000000000000	     -2.0000000000000000	      0.0000000000000000	      0.3000000000000000	      0.0000000000000000	      0.0000000000000000
      0.0100000000000000	     30.0953731132424167	      0.8000000000000000	      0.0000042561284902	      0.0000000000000000	     -2.0000000000000000	      0.0000000000000000	      0.3000000000000000	      0.0000000000000000	      0.0000000000000000
      0.0200000000000000	     30.0953731132424167	      0.8000000000000000	      0.0000042561284902	      0.0000000000000000	     -2.0000000000000000	      0.0000000000000000	      0.3000000000000000	      0.0000000000000000	      0.0000000000000000
      0.0300000000000000	     30.0953731132424167	      0.8000000000000000	      0.0000042561284902	      0.0000000000000000	     -2.0000000000000000	      0.0000000000000000	      0.3000000000000000	      0.0000000000000000	      0.0000000000000000
      0.0400000000000000	     30.0953731132424167	      0.8000000000000000	      0.0000042561284902	      0.0000000000000000	     -2.0000000000000000	      0.0000000000000000	      0.3000000000000000	      0.0000000000000000	      0.0000000000000000
      0.0500000000000000	     30.0953731132424167	      0.8000000000000000	      0.0000042561284902	      0.0000000000000000	     -2.0000000000000000	      0.0000000000000000	      0.3000000000000000	      0.0000000000000000	      0.0000000000000000
      0.0600000000000000	     30.0953731132424167	      0.8000000000000000	      0.0000042561284902	      0.0000000000000000	     -2.0000000000000000	      0.0000000000000000	      0.3000000000000000	      0.0000000000000000	      0.0000000000000000
      0.0700000000000000	     30.0953731132424167	      0.8000000000000000	      0.0000042561284902	      0.0000000000000000	     -2.0000000000000000	      0.0000000000000000	      0.3000000000000000	      0.0000000000000000	      0.0000000000000000
      0.0800000000000000	     30.0953731132424167	      0.8000000000000000	      0.0000042561284902	      0.0000000000000000	     -2.0000000000000000	      0.0000000000000000	      0.3000000000000000	      0.0000000000000000	      0.0000000000000000
      0.0900000000000000	     30.0953731132424167	      0.8000000000000000	      0.0000042561284902	      0.0000000000000000	     -2.0000000000000000	      0.0000000000000000	      0.3000000000000000	      0.0000000000000000	      0.0000000000000000
      0.1000000000000000	     30.0953731132424167	      0.8000000000000000	      0.0000042561284902	      0.0000000000000000	     -2.0000000000000000	      0.0000000000000000	      0.3000000000000000	      0.0000000000000000	      0.0000000000000000
      0.1100000000000000	     30.0953731132424167	      0.8000000000000000	      0.0000042561284902	      0.0000000000000000	     -2.0000000000000000	      0.0000000000000000	      0.3000000000000000	      0.0000000000000000	      0.0000000000000000
      0.1200000000000000	     30.0953731132424167	      0.8000000000000000	      0.0000042561284902	      0.0000000000000000	     -2.0000000000000000	      0.0000000000000000	      0.3000000000000000	      0.0000000000000000	      0.0000000000000000
      0.1300000000000000	     30.0953731132424167	      0.8000000000000000	      0.0000042561284902	      0.0000000000000000	     -2.0000000000000000	      0.0000000000000000	      0.3000000000000000	      0.0000000000000000	      0.0000000000000000
      0.1400000000000000	     30.0953731132424167	      0.8000000000000000	      0.0000042561284902	      0.0000000000000000	     -2.0000000000000000	      0.0000000000000000	      0.3000000000000000	      0.0000000000000000	      0.0000000000000000
      0.1500000000000000	     30.0953731132424167	      0.8000000000000000	      0.0000042561284902	      0.0000000000000000	     -2.0000000000000000	      0.0000000000000000	      0.3000000000000000	      0.0000000000000000	      0.0000000000000000
      0.1600000000000000	     30.0953731132424167	      0.8000000000000000	      0.0000042561284902	      0.0000000000000000	     -2.0000000000000000	      0.0000000000000000	      0.3000000000000000	      0.0000000000000000	      0.0000000000000000
      0.1700000000000000	     30.0953731132424167	      0.8000000000000000	      0.0000042561284902	      0.0000000000000000	     -2.0000000000000000	      0.0000000000000000	      0.3000000000000000	      0.0000000000000000	      0.0000000000000000
      0.1800000000000000	     30.0953731132424167	      0.8000000000000000	      0.0000042561284902	      0.0000000000000000	     -2.0000000000000000	      0.0000000000000000	      0.3000000000000000	      0.0000000000000000	      0.0000000000000000
      0.1900000000000000	     30.0953731132424167	      0.8000000000000000	      0.0000042561284902	      0.0000000000000000	     -2.0000000000000000	      0.0000000000000000	      0.3000000000000000	      0.0000000000000000	      0.0000000000000000
      0.2000000000000000	     30.0953731132424167	      0.8000000000000000	      0.0000042561284902	      0.0000000000000000	     -2.0000000000000000	      0.0000000000000000	      0.3000000000000000	      0.0000000000000000	      0.0000000000000000
