Static Optimization
version=1
nRows=21
nColumns=4
inDegrees=no
This file contains static optimization results.

endheader
time	flexor	extensor	reserve
      0.0000000000000000	      0.2161010877275746	      0.0100000000000000	      0.0003056130867967
      0.0100000000000000	      0.2161010877275746	      0.0100000000000000	      0.0003056130867967
      0.0200000000000000	      0.2161010877275746	      0.0100000000000000	      0.0003056130867967
      0.0300000000000000	      0.2161010877275746	      0.0100000000000000	      0.0003056130867967
      0.0400000000000000	      0.2161010877275746	      0.0100000000000000	      0.0003056130867967
      0.0500000000000000	      0.2161010877275746	      0.0100000000000000	      0.0003056130867967
      0.0600000000000000	      0.2161010877275746	      0.0100000000000000	      0.0003056130867967
      0.0700000000000000	      0.2161010877275746	      0.0100000000000000	      0.0003056130867967
      0.0800000000000000	      0.2161010877275746	      0.0100000000000000	      0.0003056130867967
      0.0900000000000000	      0.2161010877275746	      0.0100000000000000	      0.0003056130867967
      0.1000000000000000	      0.2161010877275746	      0.0100000000000000	      0.0003056130867967
      0.1100000000000000	      0.2161010877275746	      0.0100000000000000	      0.0003056130867967
      0.1200000000000000	      0.2161010877275746	      0.0100000000000000	      0.0003056130867967
      0.1300000000000000	      0.2161010877275746	      0.0100000000000000	      0.0003056130867967
      0.1400000000000000	      0.2161010877275746	      0.0100000000000000	      0.0003056130867967
      0.1500000000000000	      0.2161010877275746	      0.0100000000000000	      0.0003056130867967
      0.1600000000000000	      0.2161010877275746	      0.0100000000000000	      0.0003056130867967
      0.1700000000000000	      0.2161010877275746	      0.0100000000000000	      0.0003056130867967
      0.1800000000000000	      0.2161010877275746	      0.0100000000000000	      0.0003056130867967
      0.1900000000000000	      0.2161010877275746	      0.0100000000000000	      0.0003056130867967
      0.2000000000000000	      0.2161010877275746	      0.0100000000000000	      0.0003056130867967
